STARLINK-4485           
1 53541U 22101Q   26068.98196273  .00000774  00000+0  66703-4 0  9994
2 53541  53.2172  72.8109 0001256  91.2812 268.8324 15.08837910196904
DISKSAT A               
1 67222U 25305D   26068.54789610  .00013824  00000+0  90452-3 0  9996
2 67222  45.0023 251.6019 0004082 318.1929  41.8634 15.07741062 12266
